{"fetched_at":"2026-04-20T13:26:37Z","count":2606,"tles":[{"name":"SL-12 R/B(2)","line1":"1 14195U 81102F   26104.77975925 -.00000033  00000+0  00000+0 0  9991","line2":"2 14195   6.7554 294.9383 0008252 227.6859 132.0385  1.00240794122366","category":"Other"},{"name":"ONEWEB-0374","line1":"1 49300U 21090X   26109.81250674  .00000187  00000+0  47020-3 0  9990","line2":"2 49300  87.8927 301.3480 0001861 110.0420 250.0911 13.14503513219895","category":"Other"},{"name":"STARLINK-32496","line1":"1 62051U 24216V   26110.17027689  .00019445  00000+0  71457-3 0  9998","line2":"2 62051  43.0057  29.4908 0001278 267.1030  92.9675 15.27566331 80133","category":"Starlink"},{"name":"FLOCK 4S-36","line1":"1 47530U 21006DW  23362.15547867  .00026018  00000+0  70197-3 0  9990","line2":"2 47530  97.3658  60.8566 0006234 115.8283 244.3605 15.37749162163394","category":"Other"},{"name":"STARLINK-35436","line1":"1 65932U 25225Y   26109.93146260  .00015219  00000+0  52498-3 0  9998","line2":"2 65932  53.1606 334.0223 0000830 109.9028 250.2062 15.30195000 30728","category":"Starlink"},{"name":"IRIDIUM 33 DEB","line1":"1 34351U 97051ET  23179.05758191  .00037267  00000+0  38965-2 0  9993","line2":"2 34351  86.4138  35.0370 0030924 129.5364 230.8603 14.89132382761887","category":"Other"},{"name":"STARLINK-3855","line1":"1 52474U 22049Z   26084.17792690  .10221595  12469-4  28481-3 0  9997","line2":"2 52474  53.2021 315.3988 0005804 256.5610 103.4794 16.45177351215068","category":"Starlink"},{"name":"FENGYUN 1C DEB","line1":"1 31087U 99025BGH 26104.30526976  .00001258  00000+0  21714-3 0  9998","line2":"2 31087  98.0923 127.1149 0168571 266.6087 155.7456 14.61434967  5609","category":"Weather"},{"name":"QIANFAN-74","line1":"1 63160U 25046B   26110.16313163  .00000075  00000+0  97792-4 0  9996","line2":"2 63160  88.9685 306.6209 0001923  84.1629 275.9741 13.51007657 64812","category":"Other"},{"name":"STARLINK-35991","line1":"1 66861U 25281P   26110.04481113  .00000839  00000+0  40022-4 0  9998","line2":"2 66861  43.0066 109.6263 0001806 265.0645  95.0001 15.27571479 22511","category":"Starlink"},{"name":"STARLINK-36663","line1":"1 67919U 26036R   26110.00514576  .00032067  00000+0  11392-2 0  9992","line2":"2 67919  43.0017  11.6719 0001872 270.8792  89.1846 15.28447405 10048","category":"Starlink"},{"name":"FENGYUN 1C DEB","line1":"1 37478U 99025EJY 26104.16451865  .00001672  00000+0  26359-2 0  9995","line2":"2 37478  99.6556  79.0862 0548373  37.2573 326.5296 13.03415394581561","category":"Weather"},{"name":"STARLINK-30901","line1":"1 58351U 23177A   23362.58334491  .00199701  00000+0  13742-2 0  9990","line2":"2 58351  43.0045  24.4526 0003750  91.7913 129.8404 15.73256844  7569","category":"Starlink"},{"name":"LEMUR-2-LUCYBRYCE","line1":"1 42773U 17036J   23264.05391204  .09970726  23522-5  15831-2 0  9990","line2":"2 42773  97.1029 304.9695 0009077 251.6388 108.3922 16.33740479348054","category":"Other"},{"name":"STARLINK-33867","line1":"1 63795U 25091W   26110.16704477  .00011647  00000+0  43184-3 0  9994","line2":"2 63795  42.9961 178.4559 0000509   7.1442 352.9416 15.27598072 55246","category":"Starlink"},{"name":"CZ-6A DEB","line1":"1 60644U 24140AV  24249.61554309  .00030060  00000+0  58083-2 0  9999","line2":"2 60644  89.0403 347.7163 0130646 320.5889  38.5871 14.57911704  4142","category":"Other"},{"name":"UNKNOWN","line1":"1 81792U          26102.92895593  .00000629  00000+0  24753-3 0  9998","line2":"2 81792  65.8290 183.4311 0894862 228.9680 123.0619 13.11481455 95922","category":"Other"},{"name":"STARLINK-31682","line1":"1 59440U 24065V   24128.11886062  .00014767  00000+0  11093-3 0  9999","line2":"2 59440  53.1549 173.4238 0001068  50.2754 309.8359 15.72879323  5938","category":"Starlink"},{"name":"ONEWEB-0088","line1":"1 45457U 20020AK  26110.06789421  .00000368  00000+0  10011-2 0  9997","line2":"2 45457  87.8941  32.5788 0001657  90.5881 269.5437 13.11416614294927","category":"Other"},{"name":"TELSTAR 303","line1":"1 15826U 85048D   26104.53169905 -.00000357  00000+0  00000+0 0  9992","line2":"2 15826  14.2316 346.7564 0003264 288.8617 250.1339  0.99881386 45869","category":"Other"},{"name":"STARLINK-3131","line1":"1 49427U 21104V   26110.07245376 -.00000343  00000+0 -34421-5 0  9998","line2":"2 49427  53.2184  43.3552 0001502  91.3266 268.7898 15.08836244244883","category":"Starlink"},{"name":"FENGYUN 1C DEB","line1":"1 29774U 99025BQ  26104.86805308  .00000188  00000+0  10321-3 0  9991","line2":"2 29774  99.0922  54.0010 0050970 130.7005 296.6759 14.22860574998266","category":"Weather"},{"name":"STARLINK-32470","line1":"1 62115U 24222B   26109.90015455  .00027616  00000+0  10086-2 0  9992","line2":"2 62115  42.9994 263.2732 0000514 232.3916 127.6889 15.27603587 79208","category":"Starlink"},{"name":"STARLINK-2006","line1":"1 47601U 21009BF  23362.16586240  .00003736  00000+0  26955-3 0  9996","line2":"2 47601  53.0549   4.2882 0001905 104.4070 255.7130 15.06404616160723","category":"Starlink"},{"name":"HULIANWANG DIGUI-88","line1":"1 65996U 25231B   26110.13500279 -.00000096  00000+0  60915-4 0  9995","line2":"2 65996  50.0008  24.1181 0000890  17.4914 342.5989 13.29332828 25165","category":"Other"},{"name":"IRIDIUM 33 DEB","line1":"1 34489U 97051GE  23179.25951874  .00027705  00000+0  55482-2 0  9999","line2":"2 34489  86.3994 115.2531 0057515 346.5722  13.3954 14.60597019748870","category":"Other"},{"name":"STARLINK-3929","line1":"1 52567U 22051AL  26109.77249287  .00000039  00000+0  20521-4 0  9994","line2":"2 52567  53.2166 294.6920 0001402  92.0216 268.0937 15.08836667217789","category":"Starlink"},{"name":"FENGYUN 1C DEB","line1":"1 31195U 99025BJZ 26103.80289480  .00000298  00000+0  17500-3 0  9999","line2":"2 31195  98.7615 138.7453 0171520 196.7696 162.7759 14.08049834978167","category":"Weather"},{"name":"2025-052Q","line1":"1 63224U 25052Q   25104.52736395  .00010397  00000+0  52063-3 0  9991","line2":"2 63224  97.4425 359.3290 0005135 178.2848 181.8404 15.17560720  4737","category":"Other"},{"name":"STARLINK-35945","line1":"1 66925U 25286A   26110.15274699  .00019316  00000+0  66284-3 0  9992","line2":"2 66925  53.1589 165.9471 0001381  93.3384 266.7775 15.30188049 21762","category":"Starlink"},{"name":"STARLINK-36867","line1":"1 67983U 26038Y   26109.98718387  .00034345  00000+0  10613-2 0  9992","line2":"2 67983  97.2866 120.5928 0002226 103.2807 256.8684 15.33445693  9576","category":"Starlink"},{"name":"FENGYUN 1C DEB","line1":"1 37704U 99025ELV 23178.58292250  .00001906  00000+0  18768-2 0  9997","line2":"2 37704  98.3662 119.4600 0251818  62.3063 109.6219 13.66627876656347","category":"Weather"},{"name":"STARLINK-30917","line1":"1 58419U 23180T   26110.18965209 -.00001925  00000+0 -60465-4 0  9994","line2":"2 58419  43.0036  69.3867 0001237 273.1108  86.9602 15.27577649135248","category":"Starlink"},{"name":"INTELSAT 37E (IS-37E)","line1":"1 42950U 17059A   26110.14460299 -.00000141  00000+0  00000+0 0  9992","line2":"2 42950   0.0187 245.1371 0001874 162.0899 195.0657  1.00271826 31482","category":"Other"},{"name":"STARLINK-33888","line1":"1 63860U 25093AA  26109.57151831  .00001026  00000+0  46865-4 0  9992","line2":"2 63860  43.0019 207.0750 0003051 280.0911  79.9596 15.27542670 54220","category":"Starlink"},{"name":"CZ-6A DEB","line1":"1 60708U 24140DM  24249.28975211  .00009806  00000+0  40586-2 0  9995","line2":"2 60708  89.0277 347.8616 0043951 203.7589 156.1577 14.26030611  3433","category":"Other"},{"name":"UNKNOWN","line1":"1 82500U          26101.31789121  .00002475  00000+0  11124-2 0  9995","line2":"2 82500  70.9648 110.5626 0122043 291.4630  67.3516 14.19457209635913","category":"Other"},{"name":"CURTIS","line1":"1 59507U 98067WG  24260.32060784  .04760722  12083-4  10953-2 0  9996","line2":"2 59507  51.6052 201.9965 0003028 242.0668 118.0048 16.29177187 24861","category":"Other"},{"name":"STARLINK-34719","line1":"1 64943U 25158M   26110.13274372  .00001749  00000+0  12537-3 0  9997","line2":"2 64943  97.6009 334.9612 0002677  78.1799 281.9728 15.05650855 41596","category":"Starlink"},{"name":"STARLINK-2351","line1":"1 47891U 21021AH  23362.01105774  .00016809  00000+0  11443-2 0  9994","line2":"2 47891  53.0558 284.9820 0001532  86.3759 273.7405 15.06412118154590","category":"Starlink"},{"name":"FENGYUN 1C DEB","line1":"1 31555U 99025BYW 26104.12150860  .00002181  00000+0  54418-3 0  9996","line2":"2 31555  99.1145  72.1498 0150009 193.0514 166.6776 14.46202178983317","category":"Weather"},{"name":"STARLINK-3247","line1":"1 49747U 21115Z   26110.03469273  .00000676  00000+0  60577-4 0  9992","line2":"2 49747  53.2176 323.5153 0001358  86.0078 274.1070 15.08847992241770","category":"Starlink"},{"name":"STARLINK-32602","line1":"1 62181U 24225U   26110.07433910 -.00023002  00000+0 -19287-2 0  9997","line2":"2 62181  70.0086  50.1168 0002405 267.7844  92.3040 14.98283327 76324","category":"Starlink"},{"name":"STARLINK-2067","line1":"1 47674U 21012BG  23362.14926358  .00002215  00000+0  16749-3 0  9997","line2":"2 47674  53.0538  54.3526 0000886  79.0368 281.0720 15.06409653158782","category":"Starlink"},{"name":"STARLINK-35558","line1":"1 66060U 25235C   26110.13985674  .00017159  00000+0  58999-3 0  9993","line2":"2 66060  53.1596  53.0257 0001352  90.0705 270.0450 15.30206635 29261","category":"Starlink"},{"name":"GSAT0213 (GALILEO 17)","line1":"1 41861U 16069C   26108.72120639  .00000053  00000+0  00000+0 0  9995","line2":"2 41861  55.4612 102.7327 0005868 300.7039  59.2377  1.70474506 58501","category":"GPS"},{"name":"STARLINK-5002","line1":"1 53922U 22119AN  26110.19059868 -.00000120  00000+0  10547-4 0  9996","line2":"2 53922  53.2157 127.5646 0001020  76.6538 283.4568 15.08838984198092","category":"Starlink"},{"name":"STARLINK-32282","line1":"1 61006U 24158S   26109.58308361 -.00001468  00000+0 -37471-4 0  9991","line2":"2 61006  53.1608 235.4796 0000942  83.0145 277.0963 15.30192376 91911","category":"Starlink"}]}